{"type": "FeatureCollection", "features": [{"type": "Feature", "properties": {"district": "Bogo", "source": "Bogo"}, "geometry": {"type": "Polygon", "coordinates": [[[14.785844, 10.7323453], [14.7859745, 10.82396], [14.7968267, 10.8860992], [14.7912832, 10.9253591], [14.8069009, 10.9474688], [14.8071026, 11.0005297], [14.8019045, 11.0306982], [14.784299, 11.0307377], [14.7831226, 11.0331792], [14.7748607, 11.0398148], [14.7342543, 11.0007716], [14.6331202, 10.8836669], [14.5929198, 10.8259244], [14.5942447, 10.8240174], [14.5917267, 10.8202984], [14.5884314, 10.8186104], [14.5887634, 10.8218312], [14.5860683, 10.8232251], [14.585196, 10.820148], [14.5823281, 10.8195282], [14.5823531, 10.8208716], [14.5805657, 10.819828], [14.580698, 10.812296], [14.579194, 10.8119203], [14.5781803, 10.8085768], [14.5729763, 10.8066541], [14.567689, 10.8075567], [14.5645367, 10.8062686], [14.5172259, 10.762876], [14.5178709, 10.7609814], [14.515126, 10.7521548], [14.5089482, 10.7452713], [14.507365, 10.7404581], [14.508965, 10.7386816], [14.5034756, 10.7359548], [14.5014963, 10.7318217], [14.4983534, 10.7309353], [14.4918829, 10.7190808], [14.4952979, 10.7124308], [14.4991264, 10.687215], [14.5013959, 10.6848887], [14.5048684, 10.6739346], [14.5281973, 10.6444747], [14.5217829, 10.6242821], [14.5519529, 10.6088216], [14.578032, 10.5891306], [14.5880715, 10.5881452], [14.612901, 10.5895854], [14.6328459, 10.5952786], [14.6871416, 10.5808817], [14.7857344, 10.6572877], [14.785844, 10.7323453]]]}}, {"type": "Feature", "properties": {"district": "Bourha", "source": "Bourha"}, "geometry": {"type": "Polygon", "coordinates": [[[13.7415741, 10.2443967], [13.7464713, 10.2462336], [13.7486865, 10.2490173], [13.7441273, 10.2571988], [13.7439922, 10.2593532], [13.7467529, 10.2625109], [13.7397255, 10.2759767], [13.7394751, 10.2816115], [13.7296977, 10.2875504], [13.7213652, 10.2894945], [13.6836144, 10.3234727], [13.6845049, 10.3275722], [13.6875612, 10.3315116], [13.6898638, 10.3459485], [13.6943787, 10.3570792], [13.6935555, 10.3601926], [13.688066, 10.3654401], [13.6846399, 10.3724358], [13.6858746, 10.3818371], [13.6831659, 10.3868726], [13.6651911, 10.3950591], [13.6385272, 10.3923461], [13.6329069, 10.3888096], [13.6301865, 10.3931555], [13.6323406, 10.3976044], [13.6272001, 10.4030189], [13.621244, 10.4003482], [13.6177872, 10.401949], [13.610071, 10.3979261], [13.6006626, 10.3971992], [13.5892675, 10.3915052], [13.5875705, 10.3944589], [13.5823886, 10.3971177], [13.5753504, 10.4037649], [13.5587027, 10.4138237], [13.5512099, 10.4132407], [13.537292, 10.4191398], [13.5325142, 10.4156683], [13.5260879, 10.4008143], [13.4966712, 10.3894634], [13.4976946, 10.355666], [13.4999595, 10.3341117], [13.4811831, 10.3325179], [13.4786053, 10.3287533], [13.4847527, 10.3255408], [13.4897282, 10.3140123], [13.4908727, 10.2950204], [13.4800547, 10.2817499], [13.4709906, 10.2654264], [13.4658601, 10.2458525], [13.4674834, 10.2355573], [13.4757387, 10.2241684], [13.4835872, 10.1962032], [13.4823796, 10.1930855], [13.4738263, 10.1929395], [13.4700839, 10.1890543], [13.4707333, 10.1829425], [13.4676616, 10.1771632], [13.4661276, 10.1697672], [13.4699172, 10.1607531], [13.4650849, 10.156979], [13.4470674, 10.1503123], [13.4403776, 10.1448648], [13.4368455, 10.1324039], [13.4308711, 10.1282916], [13.4121985, 10.1215165], [13.4237379, 10.1058846], [13.4271336, 10.0812598], [13.4319295, 10.0798233], [13.4692821, 10.0820044], [13.4780923, 10.0835543], [13.499506, 10.0910769], [13.5070858, 10.0907354], [13.5185779, 10.0946935], [13.5429026, 10.0951342], [13.5504186, 10.0988471], [13.5537814, 10.098264], [13.5523693, 10.0834913], [13.5558382, 10.0818924], [13.5629457, 10.0822708], [13.5650185, 10.0841516], [13.567586, 10.0954486], [13.582146, 10.1120058], [13.5867285, 10.1210086], [13.6111068, 10.1252004], [13.6148974, 10.1293219], [13.6239083, 10.1280612], [13.630329, 10.122484], [13.6456454, 10.1244147], [13.6605103, 10.1284382], [13.6751667, 10.1346705], [13.6936216, 10.1372097], [13.6948758, 10.1406504], [13.6944499, 10.1444736], [13.690382, 10.1462021], [13.6544209, 10.1568528], [13.6434585, 10.164703], [13.6369722, 10.1657486], [13.629736, 10.1648976], [13.6096286, 10.1732338], [13.5983519, 10.1761361], [13.5940771, 10.1803114], [13.5842376, 10.1827164], [13.5673868, 10.1916611], [13.5643154, 10.1958194], [13.5656297, 10.2035549], [13.564927, 10.2133463], [13.5679998, 10.2177172], [13.5711716, 10.2289466], [13.5788428, 10.2348024], [13.5900774, 10.2572711], [13.6040473, 10.2507679], [13.6166248, 10.2475662], [13.6430766, 10.2350977], [13.6484787, 10.2297999], [13.6643621, 10.2251758], [13.6730603, 10.2319201], [13.6747853, 10.2454971], [13.6777824, 10.2512242], [13.6944026, 10.2589518], [13.7066865, 10.259461], [13.7278933, 10.2491238], [13.7324185, 10.245623], [13.7415741, 10.2443967]]]}}, {"type": "Feature", "properties": {"district": "Fotokol", "source": "Fotokol"}, "geometry": {"type": "Polygon", "coordinates": [[[14.3088804, 12.5661053], [14.3071793, 12.5663789], [14.3043425, 12.5704515], [14.3011474, 12.5713763], [14.2928661, 12.5663756], [14.2837385, 12.5680087], [14.2808947, 12.5666124], [14.2759896, 12.5695783], [14.2804289, 12.5723597], [14.2801896, 12.5749475], [14.2756353, 12.5807756], [14.2803836, 12.5844122], [14.2778701, 12.5875686], [14.2724608, 12.5855226], [14.2573979, 12.5875245], [14.2619096, 12.5789092], [14.2603828, 12.5721189], [14.2609578, 12.5663096], [14.2589665, 12.5622556], [14.2390778, 12.5530969], [14.2398313, 12.5389286], [14.2336862, 12.5354678], [14.2383475, 12.5256564], [14.2192826, 12.5140903], [14.2187535, 12.5050625], [14.2216695, 12.494774], [14.2211829, 12.4877915], [14.2165655, 12.4825951], [14.2161362, 12.47851], [14.2196912, 12.4740076], [14.2126643, 12.4654468], [14.2085789, 12.4694481], [14.2052935, 12.4700229], [14.2027661, 12.4651258], [14.202864, 12.4613727], [14.1993512, 12.4592232], [14.1960714, 12.4601389], [14.1901261, 12.4665633], [14.1960113, 12.483163], [14.2040509, 12.4946045], [14.2042718, 12.4969876], [14.2002119, 12.5025724], [14.1999508, 12.5014033], [14.1965447, 12.5019574], [14.192479, 12.4994526], [14.1903643, 12.4929607], [14.1901926, 12.4854187], [14.1882853, 12.4821975], [14.1858957, 12.4806152], [14.1776986, 12.4809014], [14.1761891, 12.4789879], [14.1838191, 12.4542061], [14.1819332, 12.4475071], [14.1842749, 12.4468719], [14.1891491, 12.4508884], [14.1933835, 12.4517082], [14.1964564, 12.4507688], [14.1972783, 12.4489448], [14.1956921, 12.4468744], [14.1908617, 12.4458529], [14.1879383, 12.4432445], [14.188919, 12.4399519], [14.1946911, 12.4360847], [14.1941027, 12.4334396], [14.19216, 12.4331843], [14.1870409, 12.4363569], [14.1855006, 12.435054], [14.1860656, 12.4307329], [14.1842117, 12.4276751], [14.1820915, 12.4271096], [14.1779912, 12.4300649], [14.1758243, 12.4292257], [14.175815, 12.4253675], [14.1797213, 12.4183693], [14.1741898, 12.4146042], [14.1733773, 12.4109555], [14.1768377, 12.4083283], [14.1894554, 12.4048014], [14.2016707, 12.384319], [14.2221716, 12.3742472], [14.2223253, 12.364263], [14.2283335, 12.3624186], [14.2518511, 12.368455], [14.266099, 12.3692934], [14.2707338, 12.3718085], [14.2786302, 12.3713055], [14.2834368, 12.3687904], [14.2882433, 12.3597356], [14.2920198, 12.3570527], [14.2966547, 12.3590649], [14.2973413, 12.363257], [14.2915049, 12.3702995], [14.2923632, 12.3718085], [14.2981996, 12.3706348], [14.3018045, 12.3664429], [14.3030062, 12.3604064], [14.308671, 12.3594003], [14.3138208, 12.3607417], [14.3210327, 12.3711925], [14.3269417, 12.3746883], [14.3339052, 12.3736529], [14.3514439, 12.3637379], [14.3656626, 12.3651014], [14.3730691, 12.3627748], [14.3763905, 12.3595602], [14.3836644, 12.3596694], [14.3880451, 12.3635977], [14.4008697, 12.3674311], [14.4074808, 12.3667091], [14.4139793, 12.3620807], [14.4192649, 12.3612451], [14.4228506, 12.3627382], [14.4155765, 12.3682617], [14.4171325, 12.3708048], [14.4077974, 12.3910848], [14.3980148, 12.3978783], [14.3725059, 12.4064188], [14.3702727, 12.4113415], [14.373308, 12.4170185], [14.3804467, 12.4234751], [14.3805058, 12.4263425], [14.3668213, 12.4280491], [14.3572868, 12.4328298], [14.3516033, 12.4404015], [14.3491483, 12.4487705], [14.349504, 12.4519193], [14.3534041, 12.4570064], [14.3414743, 12.4589646], [14.3397644, 12.4610071], [14.3393169, 12.4676149], [14.346919, 12.4823833], [14.345876, 12.4884287], [14.3532439, 12.4917251], [14.3459326, 12.5053555], [14.3369545, 12.5089771], [14.3364305, 12.5118563], [14.338901, 12.5184062], [14.3375658, 12.5244586], [14.3385723, 12.5307504], [14.3332976, 12.5440534], [14.3245748, 12.5459486], [14.3205532, 12.5491846], [14.315893, 12.5498514], [14.3140096, 12.5576353], [14.3088804, 12.5661053]]]}}, {"type": "Feature", "properties": {"district": "Gazawa", "source": "Gazawa"}, "geometry": {"type": "Polygon", "coordinates": [[[14.0438631, 10.4589059], [14.045534, 10.4564607], [14.0623262, 10.4539219], [14.096896, 10.4624585], [14.1038792, 10.4684049], [14.1221753, 10.4643239], [14.1584131, 10.481154], [14.1646456, 10.4878685], [14.1714801, 10.4847276], [14.1747157, 10.4952759], [14.1679632, 10.5491494], [14.1629885, 10.571948], [14.1451814, 10.6334685], [14.1302932, 10.6270329], [14.1161269, 10.6272646], [14.1090909, 10.6302166], [14.0916604, 10.6441236], [14.0701905, 10.6379136], [14.0704953, 10.6301211], [14.0617572, 10.6178328], [14.0558044, 10.604688], [14.0549948, 10.5969998], [14.0621349, 10.5910749], [14.0568665, 10.5821079], [14.0560672, 10.5749602], [14.0571232, 10.5727806], [14.0650013, 10.5702221], [14.0710559, 10.5647202], [14.0774557, 10.5636721], [14.0812458, 10.5657725], [14.0895307, 10.5630718], [14.090452, 10.5610306], [14.0891639, 10.5574032], [14.0827664, 10.5503461], [14.0758409, 10.5360018], [14.0741309, 10.5275173], [14.0770269, 10.5126095], [14.0892149, 10.506604], [14.0928171, 10.488983], [14.0883397, 10.4823002], [14.0838044, 10.4804806], [14.0678998, 10.4845185], [14.0585352, 10.4795338], [14.0438631, 10.4589059]]]}}, {"type": "Feature", "properties": {"district": "Goulfey", "source": "Goulfey"}, "geometry": {"type": "Polygon", "coordinates": [[[14.8764223, 12.1093311], [14.893814, 12.1086257], [14.9097513, 12.1129056], [14.9145397, 12.117134], [14.922834, 12.1286], [14.9104885, 12.1468676], [14.8996235, 12.1549203], [14.890397, 12.1592813], [14.8852765, 12.1651882], [14.8863518, 12.1704037], [14.8909839, 12.1756031], [14.9066607, 12.1802376], [14.9110377, 12.1853059], [14.9113969, 12.1881802], [14.9079177, 12.1927437], [14.8964252, 12.1971536], [14.8931704, 12.2008395], [14.8921828, 12.2059513], [14.8944499, 12.2125768], [14.9022163, 12.2224927], [14.9033386, 12.2280648], [14.9019245, 12.2342071], [14.8931255, 12.2462939], [14.892093, 12.2513171], [14.8943825, 12.2581389], [14.9031815, 12.2676803], [14.9057883, 12.2826184], [14.9031815, 12.2890868], [14.8951111, 12.3009328], [14.8932857, 12.3073953], [14.8944045, 12.3128221], [14.903649, 12.3221606], [14.9090269, 12.3310961], [14.9083791, 12.3367526], [14.9010589, 12.3439193], [14.8998844, 12.3505399], [14.9003764, 12.356044], [14.9076775, 12.3708967], [14.908468, 12.3838017], [14.9000282, 12.4050036], [14.8852345, 12.4273077], [14.8752352, 12.4372741], [14.8746003, 12.4421254], [14.8786001, 12.4538735], [14.8778223, 12.4633739], [14.8709498, 12.46979], [14.8653628, 12.4686277], [14.8622995, 12.4635754], [14.8617123, 12.4560588], [14.860252, 12.454168], [14.8542842, 12.4528196], [14.8474116, 12.4572057], [14.8431421, 12.4677288], [14.8456022, 12.4786544], [14.8484274, 12.4820018], [14.8566967, 12.4871312], [14.8591728, 12.4926634], [14.8562682, 12.5061292], [14.8494908, 12.5136443], [14.847237, 12.5197183], [14.8513955, 12.5319122], [14.8508082, 12.5486605], [14.8535382, 12.5547801], [14.8531255, 12.5641374], [14.8547445, 12.5743308], [14.8485861, 12.5822158], [14.8432055, 12.5927803], [14.8394121, 12.6030965], [14.8373964, 12.6186011], [14.8325237, 12.6335007], [14.8290636, 12.638178], [14.8243972, 12.6399745], [14.8061762, 12.6356225], [14.7961451, 12.6403617], [14.7870505, 12.6344764], [14.7808604, 12.6323546], [14.7722102, 12.6346933], [14.7665121, 12.6396493], [14.7627187, 12.6466804], [14.7597824, 12.6671378], [14.7627029, 12.6755154], [14.7615442, 12.6781324], [14.7512433, 12.6863238], [14.7457124, 12.6886714], [14.7418192, 12.6890904], [14.7367656, 12.6874564], [14.7344791, 12.6851321], [14.731266, 12.6680015], [14.7298063, 12.6646992], [14.724005, 12.6596077], [14.7205908, 12.6577119], [14.7160664, 12.6577119], [14.7078398, 12.6618245], [14.7011535, 12.6657934], [14.6546722, 12.6782672], [14.6486617, 12.6707428], [14.636766, 12.6614301], [14.6117856, 12.6772656], [14.5984034, 12.6890272], [14.5558848, 12.70523], [14.5284053, 12.6962383], [14.501338, 12.7063702], [14.4819116, 12.7211649], [14.4774339, 12.7184506], [14.4842597, 12.7128541], [14.4848687, 12.7089208], [14.4825473, 12.7059003], [14.4850254, 12.7028784], [14.4933567, 12.6935844], [14.5070315, 12.6683588], [14.5184161, 12.63369], [14.5321655, 12.620934], [14.5494416, 12.6179687], [14.5584219, 12.6038225], [14.5627097, 12.6005692], [14.5660138, 12.5956616], [14.5674486, 12.5919084], [14.5639434, 12.5875155], [14.5684639, 12.5643436], [14.5608535, 12.5540796], [14.5631823, 12.5478892], [14.5575479, 12.5325583], [14.5473095, 12.5232787], [14.5426177, 12.5209558], [14.5425619, 12.5183513], [14.5508418, 12.5157612], [14.5497792, 12.5103862], [14.5532613, 12.5049161], [14.5465673, 12.4842092], [14.5405475, 12.4772614], [14.5408668, 12.4699961], [14.5393005, 12.4676083], [14.533766, 12.4656747], [14.5310444, 12.4623809], [14.5236925, 12.4461522], [14.5064072, 12.43478], [14.5041791, 12.436873], [14.5022224, 12.4428686], [14.4969888, 12.4446345], [14.4936456, 12.4439361], [14.49324, 12.4331156], [14.4958672, 12.4313163], [14.5119912, 12.4290661], [14.5162125, 12.4270585], [14.5187594, 12.4214179], [14.5170421, 12.4158643], [14.5183889, 12.4123441], [14.5296262, 12.4143847], [14.5326126, 12.4127523], [14.5379444, 12.4044355], [14.5479958, 12.4009114], [14.5579298, 12.400183], [14.5614294, 12.3976665], [14.5643001, 12.3906224], [14.5676481, 12.3893313], [14.5789359, 12.3938137], [14.5885355, 12.394139], [14.5904556, 12.3925282], [14.5870072, 12.389107], [14.5874872, 12.3866526], [14.6180075, 12.3809568], [14.6324104, 12.3651171], [14.6504822, 12.3547896], [14.6538552, 12.3547194], [14.6626672, 12.3597731], [14.6725663, 12.3576465], [14.6823324, 12.3452202], [14.6811578, 12.331975], [14.683786, 12.3303491], [14.696744, 12.330078], [14.7080805, 12.3369982], [14.7139566, 12.3377479], [14.7211814, 12.3351519], [14.7337586, 12.3256331], [14.7436464, 12.31495], [14.7476263, 12.3061367], [14.7720577, 12.303002], [14.7830345, 12.2935173], [14.7909389, 12.2896828], [14.7902923, 12.2844602], [14.7866239, 12.2791262], [14.7793932, 12.2731698], [14.7784638, 12.2712689], [14.7794865, 12.2693266], [14.7861715, 12.2665669], [14.7972027, 12.2677294], [14.8025016, 12.2665695], [14.8062857, 12.2691083], [14.808411, 12.2688876], [14.8101232, 12.2660587], [14.8045576, 12.2429596], [14.8131484, 12.2300346], [14.8111331, 12.2190797], [14.8107375, 12.1969194], [14.8088909, 12.1936417], [14.8054839, 12.1919676], [14.7971543, 12.1924922], [14.7842699, 12.1875273], [14.7741405, 12.1868671], [14.7664076, 12.1903464], [14.7505009, 12.1850931], [14.7377107, 12.1844871], [14.7279878, 12.1862617], [14.7097078, 12.1944985], [14.7054, 12.2005238], [14.7025958, 12.2021529], [14.6931848, 12.2019993], [14.6870207, 12.2042224], [14.6709973, 12.1977443], [14.6721534, 12.1937042], [14.6710628, 12.1925045], [14.664144, 12.1925147], [14.667195, 12.1878977], [14.663843, 12.1798997], [14.665509, 12.1783337], [14.671731, 12.1774507], [14.67418, 12.1750317], [14.6779294, 12.1636696], [14.6795444, 12.1599282], [14.6817513, 12.1584654], [14.6900025, 12.162193], [14.6979095, 12.1592964], [14.7041259, 12.1526211], [14.7098893, 12.1493551], [14.7118437, 12.1439375], [14.7146819, 12.1413504], [14.7238421, 12.1371067], [14.7262722, 12.1370444], [14.7288744, 12.1389968], [14.7332561, 12.1388928], [14.7358892, 12.136729], [14.7398634, 12.1273151], [14.7428266, 12.1238428], [14.7397848, 12.1218546], [14.7386186, 12.1181997], [14.7468058, 12.1156223], [14.7492141, 12.1079007], [14.7523117, 12.1096948], [14.7720559, 12.1108801], [14.7933165, 12.116932], [14.816121, 12.1129879], [14.8256298, 12.1049922], [14.8303733, 12.107202], [14.8369253, 12.1070999], [14.8391408, 12.1089757], [14.8509855, 12.1105198], [14.8764223, 12.1093311]]]}}, {"type": "Feature", "properties": {"district": "Guere", "source": "Guéré"}, "geometry": {"type": "Polygon", "coordinates": [[[15.2318542, 9.9874608], [15.2480995, 9.989541], [15.2894553, 9.991995], [15.3066897, 9.9827661], [15.3068062, 9.988788], [15.3113795, 10.0002083], [15.3187997, 10.0086965], [15.3306003, 10.0185393], [15.3371678, 10.0207651], [15.3467242, 10.0268606], [15.362736, 10.0294292], [15.3701297, 10.0364779], [15.3731718, 10.0436092], [15.373398, 10.0551109], [15.3725146, 10.0838914], [15.3660844, 10.1257245], [15.3667401, 10.1587894], [15.3743963, 10.1787747], [15.3788349, 10.1830027], [15.3848402, 10.1929522], [15.3830126, 10.1957395], [15.3746032, 10.2033584], [15.3591178, 10.207517], [15.3547807, 10.2111998], [15.3547105, 10.2207113], [15.3369772, 10.2292837], [15.3323889, 10.2334862], [15.335417, 10.2421654], [15.3366395, 10.2513958], [15.3348438, 10.2524583], [15.3140236, 10.2495243], [15.3098976, 10.2377804], [15.3109599, 10.2267402], [15.3104489, 10.2066659], [15.3090202, 10.2000109], [15.3141726, 10.1850021], [15.312098, 10.171932], [15.3056054, 10.1584335], [15.2881795, 10.1364059], [15.267997, 10.0992612], [15.2559482, 10.0933202], [15.2456656, 10.0847749], [15.2404947, 10.0789608], [15.2356287, 10.0687695], [15.2343783, 10.0577385], [15.2399324, 10.0093013], [15.2318542, 9.9874608]]]}}, {"type": "Feature", "properties": {"district": "Guidiguis", "source": "Guidiguis"}, "geometry": {"type": "Polygon", "coordinates": [[[14.8271694, 10.1170422], [14.8000149, 10.1419977], [14.7827913, 10.1538193], [14.7597555, 10.1657444], [14.7366142, 10.1719106], [14.7206588, 10.173631], [14.7155329, 10.1770359], [14.6200698, 10.1895908], [14.6144372, 10.1668348], [14.6053919, 10.1482693], [14.6039383, 10.1482942], [14.609223, 10.1179617], [14.6187916, 10.083237], [14.6186416, 10.0745985], [14.6156114, 10.0674496], [14.6112281, 10.0660848], [14.5967019, 10.0663317], [14.5852783, 10.078046], [14.5708998, 10.0869313], [14.5607791, 10.0899827], [14.5446972, 10.0844935], [14.5358075, 10.0745613], [14.5297012, 10.0573803], [14.5264523, 10.0372707], [14.5145608, 10.0216262], [14.4875892, 9.9972364], [14.6178419, 9.9703856], [14.6362764, 10.0022963], [14.6466423, 10.0136405], [14.662744, 10.0205646], [14.6875081, 10.0244602], [14.696273, 10.0271891], [14.7024104, 10.0458013], [14.7189703, 10.0786311], [14.7367064, 10.0956002], [14.7601513, 10.1067086], [14.7864501, 10.1148838], [14.8097406, 10.1173513], [14.8271694, 10.1170422]]]}}, {"type": "Feature", "properties": {"district": "Hina", "source": "Hina"}, "geometry": {"type": "Polygon", "coordinates": [[[13.7315626, 10.4369571], [13.7284986, 10.4228902], [13.7169993, 10.3929822], [13.6846399, 10.3724358], [13.688066, 10.3654401], [13.6935555, 10.3601926], [13.6943787, 10.3570792], [13.6898638, 10.3459485], [13.6875612, 10.3315116], [13.6845049, 10.3275722], [13.6836144, 10.3234727], [13.7213652, 10.2894945], [13.7296977, 10.2875504], [13.7394751, 10.2816115], [13.7397255, 10.2759767], [13.7467529, 10.2625109], [13.7439922, 10.2593532], [13.7441273, 10.2571988], [13.7486865, 10.2490173], [13.7464713, 10.2462336], [13.7415741, 10.2443967], [13.7476533, 10.2441642], [13.7522786, 10.2473938], [13.7553354, 10.2477603], [13.7650142, 10.2411624], [13.7760947, 10.2401747], [13.7893682, 10.2467109], [13.7985426, 10.2480863], [13.8172843, 10.2447865], [13.8242186, 10.2448209], [13.8302901, 10.2428072], [13.840044, 10.2367555], [13.844514, 10.238886], [13.8629784, 10.2402583], [13.8770251, 10.2383992], [13.8817152, 10.2368189], [13.8898104, 10.2312023], [13.9080311, 10.2258464], [13.9388027, 10.2252428], [13.9483481, 10.2238617], [13.9620196, 10.2256434], [13.9585872, 10.2281613], [13.9521369, 10.2379786], [13.9491832, 10.2585634], [13.9509743, 10.2902909], [13.9606615, 10.3236386], [13.9423619, 10.3239783], [13.9069932, 10.3573226], [13.8743782, 10.3906243], [13.8333881, 10.4185856], [13.794983, 10.4355689], [13.7507571, 10.4334972], [13.7315626, 10.4369571]]]}}, {"type": "Feature", "properties": {"district": "Kaele", "source": "Kaélé"}, "geometry": {"type": "Polygon", "coordinates": [[[14.2350761, 10.3933307], [14.2324377, 10.3677052], [14.2292873, 10.353348], [14.2300976, 10.3144286], [14.2428317, 10.2926085], [14.2469573, 10.2781321], [14.2270296, 10.2164945], [14.2192649, 10.1863589], [14.2218444, 10.166144], [14.2144567, 10.1590581], [14.2027536, 10.1549212], [14.1981125, 10.1377026], [14.2052894, 10.131825], [14.2106623, 10.1043606], [14.2092218, 10.0909897], [14.216035, 10.0882597], [14.2263037, 10.0721893], [14.2120764, 10.0620641], [14.2097826, 10.0542161], [14.2061507, 10.0495337], [14.2042323, 10.0033094], [14.2304101, 9.9998402], [14.2405813, 10.0015563], [14.2924965, 10.000774], [14.4633577, 10.0022243], [14.4875892, 9.9972364], [14.5145608, 10.0216262], [14.5264523, 10.0372707], [14.5297012, 10.0573803], [14.5358075, 10.0745613], [14.5446972, 10.0844935], [14.5607791, 10.0899827], [14.5708998, 10.0869313], [14.5852783, 10.078046], [14.5967019, 10.0663317], [14.6112281, 10.0660848], [14.6156114, 10.0674496], [14.6186416, 10.0745985], [14.6187916, 10.083237], [14.609223, 10.1179617], [14.6039383, 10.1482942], [14.6053919, 10.1482693], [14.6144372, 10.1668348], [14.6200698, 10.1895908], [14.5940923, 10.1935325], [14.5837321, 10.24732], [14.5823139, 10.2485453], [14.4957211, 10.2424643], [14.3779718, 10.2810345], [14.3561778, 10.3828186], [14.2889467, 10.3678636], [14.2350761, 10.3933307]]]}}, {"type": "Feature", "properties": {"district": "Kar Hay", "source": "Kar-Hay"}, "geometry": {"type": "Polygon", "coordinates": [[[14.8666499, 10.0403986], [14.8722572, 10.0399467], [14.8982597, 10.0322875], [14.9069699, 10.032132], [14.9140717, 10.0233682], [14.9166871, 10.0074888], [14.9296991, 10.0043778], [14.9572787, 10.0038833], [14.9696142, 9.9976822], [14.9732184, 10.0021568], [14.9790503, 10.0034914], [14.9906622, 10.0032818], [15.0113006, 10.0201778], [15.0479092, 10.0593247], [15.0672669, 10.0770603], [15.0533639, 10.0956777], [15.044815, 10.10447], [15.0350841, 10.1276739], [15.0367256, 10.1377171], [15.0283647, 10.1565788], [14.9443298, 10.1681936], [14.9095577, 10.1754754], [14.8902155, 10.1442305], [14.8840905, 10.0749138], [14.8811039, 10.0658771], [14.8666499, 10.0403986]]]}}, {"type": "Feature", "properties": {"district": "Kolofata", "source": "Kolofata"}, "geometry": {"type": "Polygon", "coordinates": [[[13.9569366, 11.0503034], [13.9550905, 11.0412512], [13.9780934, 10.9694405], [13.999817, 10.9805425], [14.0739589, 11.0399979], [14.1159551, 11.0999722], [14.1375455, 11.1631734], [14.15573, 11.24214], [14.144123, 11.251579], [14.125231, 11.254317], [14.116393, 11.258177], [14.11513, 11.263726], [14.107651, 11.266739], [14.10677, 11.270976], [14.10381, 11.272261], [14.101453, 11.276412], [14.09792, 11.277823], [14.087744, 11.271529], [14.086744, 11.267831], [14.079545, 11.270887], [14.073445, 11.271045], [14.071576, 11.278598], [14.069813, 11.277787], [14.068608, 11.279678], [14.064285, 11.279322], [14.055673, 11.284176], [14.049543, 11.284054], [14.022152, 11.295541], [14.021644, 11.297039], [14.01688, 11.29927], [14.015547, 11.297988], [14.015513, 11.300582], [14.009467, 11.301224], [14.006904, 11.306058], [14.00552, 11.303484], [14.003934, 11.306106], [13.999113, 11.307673], [13.992701, 11.306744], [13.993142, 11.309209], [13.991011, 11.308675], [13.990964, 11.310298], [13.988525, 11.308181], [13.983236, 11.311624], [13.977063, 11.309515], [13.977175, 11.311753], [13.971132, 11.307109], [13.972105, 11.305017], [13.968782, 11.30212], [13.968825, 11.300588], [13.965673, 11.30002], [13.967387, 11.294899], [13.966133, 11.288558], [13.96392, 11.285507], [13.9659, 11.278987], [13.963469, 11.277111], [13.964864, 11.276326], [13.964627, 11.273414], [13.961231, 11.271022], [13.961314, 11.267196], [13.958861, 11.266647], [13.957902, 11.262633], [13.953442, 11.257348], [13.951417, 11.244312], [13.947692, 11.243474], [13.943628, 11.237094], [13.944393, 11.235943], [13.942765, 11.233556], [13.944824, 11.229017], [13.943106, 11.229117], [13.940676, 11.225337], [13.940649, 11.221925], [13.937027, 11.219986], [13.937017, 11.213646], [13.93444, 11.21107], [13.934255, 11.206429], [13.930451, 11.201858], [13.926218, 11.20052], [13.925814, 11.197316], [13.918103, 11.193895], [13.916241, 11.194542], [13.915206, 11.189119], [13.911631, 11.186825], [13.911168, 11.1819], [13.913018, 11.180678], [13.911523, 11.17487], [13.908079, 11.171593], [13.907966, 11.16814], [13.904603, 11.167846], [13.903659, 11.164551], [13.900294, 11.161497], [13.898616, 11.163358], [13.892113, 11.159185], [13.888197, 11.15901], [13.8817776, 11.1517863], [13.8792745, 11.1507998], [13.8797824, 11.1495951], [13.877716, 11.148228], [13.8753585, 11.1413927], [13.880181, 11.136922], [13.8937031, 11.1319033], [13.9005216, 11.1247718], [13.9092942, 11.1231243], [13.9122972, 11.1205684], [13.9158441, 11.1201768], [13.9334185, 11.1086912], [13.9364526, 11.1079721], [13.9466559, 11.090926], [13.9490353, 11.0815285], [13.9595699, 11.0691557], [13.9637985, 11.0590599], [13.9623691, 11.0545716], [13.9569366, 11.0503034]]]}}, {"type": "Feature", "properties": {"district": "Kousseri", "source": "Kousséri"}, "geometry": {"type": "Polygon", "coordinates": [[[15.0502561, 12.0193832], [15.0376407, 12.0337899], [15.0383331, 12.0351707], [15.0465691, 12.0364468], [15.0569056, 12.0365231], [15.060263, 12.0599795], [15.0502177, 12.0720454], [15.0390757, 12.0757992], [15.0369071, 12.078066], [15.0348382, 12.0853783], [15.0377795, 12.1040723], [15.0330047, 12.1094821], [15.0183388, 12.1180106], [15.0085753, 12.1213765], [15.0014078, 12.1213213], [14.9977394, 12.1196659], [14.9844204, 12.1048224], [14.9679974, 12.0966002], [14.9616765, 12.0967658], [14.9508971, 12.1015667], [14.9374652, 12.1171829], [14.922834, 12.1286], [14.9145397, 12.117134], [14.9097513, 12.1129056], [14.893814, 12.1086257], [14.8764223, 12.1093311], [14.8796661, 12.1014898], [14.8796344, 12.1000438], [14.8769575, 12.0986539], [14.8766068, 12.0960571], [14.8793237, 12.0858725], [14.8890343, 12.0862445], [14.8945607, 12.0835239], [14.9042317, 12.0821605], [14.9069084, 12.0835501], [14.916842, 12.0807341], [14.9214603, 12.0768738], [14.9216786, 12.0733978], [14.9312401, 12.0671181], [14.9295733, 12.0581841], [14.9314904, 12.0517787], [14.9360634, 12.0458948], [14.9504209, 12.0438521], [14.9604857, 12.0338001], [14.9631298, 12.0337434], [14.967913, 12.037401], [14.9783611, 12.0313907], [14.9860288, 12.0193653], [14.9939411, 12.0183268], [15.0123792, 12.0017302], [15.0228234, 11.9957194], [15.0283586, 11.9935743], [15.0339453, 11.9937437], [15.0369466, 11.9965714], [15.0375852, 11.998871], [15.0328835, 12.0119897], [15.0329998, 12.0171944], [15.0345136, 12.019186], [15.0438989, 12.0184044], [15.0502561, 12.0193832]]]}}, {"type": "Feature", "properties": {"district": "Koza", "source": "Koza"}, "geometry": {"type": "Polygon", "coordinates": [[[13.8834745, 10.8159926], [13.8893782, 10.8163001], [13.8949047, 10.8184251], [13.8986728, 10.8250011], [13.904288, 10.8200852], [13.910851, 10.8233988], [13.9216646, 10.8254377], [13.9327535, 10.8318958], [13.9644144, 10.8400328], [13.9841849, 10.842528], [13.9935917, 10.8455914], [13.9984818, 10.8461157], [14.0172959, 10.8358011], [14.0165944, 10.854661], [14.0190529, 10.8601348], [14.0216199, 10.8779696], [14.0211844, 10.8847039], [14.0172327, 10.8877358], [14.0143396, 10.8866128], [14.0019218, 10.8921634], [13.9970814, 10.8959193], [13.9855812, 10.9210051], [13.9848572, 10.9383968], [13.9825355, 10.941108], [13.9780934, 10.9694405], [13.9550905, 11.0412512], [13.9569366, 11.0503034], [13.9519215, 11.0487758], [13.9479538, 11.0446929], [13.9460945, 11.0411679], [13.9459802, 11.034354], [13.9417526, 11.0326454], [13.9440323, 11.0254972], [13.9409249, 11.0190296], [13.9409956, 11.0078321], [13.9466605, 11.0018186], [13.9501581, 11.0005864], [13.9506516, 10.9986696], [13.947154, 10.9985116], [13.9483948, 10.9947028], [13.9454229, 10.9909955], [13.9463456, 10.9856873], [13.9419294, 10.981245], [13.9430089, 10.9797186], [13.9456811, 10.9804481], [13.9460881, 10.9784411], [13.9377947, 10.9745335], [13.9375801, 10.9677293], [13.9383633, 10.9640217], [13.9403589, 10.9621468], [13.9385135, 10.9588394], [13.9383955, 10.9541521], [13.9353056, 10.950792], [13.9324196, 10.9521297], [13.930424, 10.9491277], [13.9276345, 10.9502442], [13.926626, 10.9481165], [13.9202279, 10.9444786], [13.9103595, 10.9492713], [13.9084713, 10.9544959], [13.8928694, 10.9605448], [13.8886138, 10.9570574], [13.8853259, 10.9577029], [13.8855965, 10.9559206], [13.8828789, 10.954779], [13.8750838, 10.9549039], [13.869619, 10.9508429], [13.8651173, 10.9506186], [13.8617663, 10.9474126], [13.8533667, 10.9472502], [13.848628, 10.9508816], [13.84563, 10.9509293], [13.839295, 10.9486594], [13.8259483, 10.9485749], [13.8232164, 10.9465438], [13.8118711, 10.9496867], [13.8020819, 10.9563609], [13.7825326, 10.9518177], [13.7791639, 10.9397053], [13.7756078, 10.9337279], [13.7787894, 10.9290524], [13.7786325, 10.9256361], [13.7760368, 10.9160231], [13.7716293, 10.9076451], [13.7672488, 10.8882043], [13.7778863, 10.8789888], [13.7869728, 10.8746237], [13.7990213, 10.8710154], [13.8130339, 10.8693884], [13.8166504, 10.8665158], [13.8172155, 10.8636923], [13.8115848, 10.8551326], [13.8113169, 10.8511153], [13.8160404, 10.8411864], [13.8208636, 10.8374905], [13.8215579, 10.8300396], [13.8087648, 10.8187758], [13.8064157, 10.8117745], [13.8079653, 10.8069231], [13.8257555, 10.8000086], [13.8355165, 10.7998558], [13.8408586, 10.8031905], [13.8465618, 10.8037049], [13.8490637, 10.8074863], [13.8651527, 10.8213099], [13.8834745, 10.8159926]]]}}, {"type": "Feature", "properties": {"district": "Maga", "source": "Maga"}, "geometry": {"type": "Polygon", "coordinates": [[[15.107439, 10.7345162], [15.0946831, 10.7544143], [15.0912498, 10.7680743], [15.0780319, 10.7878044], [15.0733971, 10.8087135], [15.0675647, 10.8203195], [15.0696579, 10.8273894], [15.0725397, 10.8310608], [15.0732254, 10.8463125], [15.0775169, 10.8523819], [15.085585, 10.8584511], [15.0931381, 10.8670489], [15.0945114, 10.8707577], [15.0934814, 10.8906496], [15.0874733, 10.9230132], [15.0796668, 10.9419222], [15.0811345, 10.9545119], [15.0779502, 10.9589443], [15.0615129, 10.9716632], [15.0587718, 10.9764052], [15.0593671, 10.9867729], [15.0486683, 10.9991221], [15.0228482, 10.9990037], [15.0207977, 11.0011116], [15.0137117, 11.0038078], [15.0151394, 11.0104702], [15.0124546, 11.0116179], [15.0091342, 11.0118053], [15.0073385, 11.0083139], [15.0048623, 11.0076331], [15.0024701, 11.0110863], [14.9979358, 11.0121491], [14.9969835, 11.0137493], [15.0031113, 11.0183729], [15.0029039, 11.0203228], [14.9947685, 11.0198758], [14.983634, 11.0294645], [14.9043153, 11.087237], [14.8837143, 11.0858152], [14.8177433, 11.0391544], [14.8070083, 11.0319378], [14.8019045, 11.0306982], [14.8071026, 11.0005297], [14.8069009, 10.9474688], [14.7912832, 10.9253591], [14.7968267, 10.8860992], [14.7859745, 10.82396], [14.785844, 10.7323453], [14.8835239, 10.7338704], [14.9385405, 10.7394027], [15.0366271, 10.7358617], [15.0881075, 10.731564], [15.1047672, 10.7328815], [15.107439, 10.7345162]]]}}, {"type": "Feature", "properties": {"district": "Makary", "source": "Makary"}, "geometry": {"type": "Polygon", "coordinates": [[[14.4850254, 12.7028784], [14.4821672, 12.7021924], [14.4783579, 12.6967825], [14.4859902, 12.6964534], [14.4848569, 12.6922151], [14.4798632, 12.6901032], [14.476325, 12.6951192], [14.4700169, 12.6975105], [14.4692426, 12.6899726], [14.4522855, 12.6527718], [14.4411661, 12.6341179], [14.4399261, 12.6279709], [14.4399578, 12.6119926], [14.4476746, 12.5928113], [14.4475106, 12.5848111], [14.4305386, 12.5827267], [14.427709, 12.5807198], [14.4151282, 12.5825045], [14.3973006, 12.581188], [14.39111, 12.5849924], [14.3832283, 12.5975629], [14.3773755, 12.6014286], [14.3744113, 12.6012572], [14.3677763, 12.5973956], [14.3517381, 12.6063062], [14.3326626, 12.6087191], [14.325309, 12.6127054], [14.3197336, 12.6235149], [14.3184426, 12.6304618], [14.3148981, 12.6335509], [14.3031201, 12.6312229], [14.2988459, 12.6272174], [14.2948217, 12.6265443], [14.2916385, 12.631913], [14.2948583, 12.6364063], [14.2849719, 12.6407555], [14.2855085, 12.6474121], [14.2781022, 12.6589281], [14.2754445, 12.6600373], [14.270695, 12.6557039], [14.2644292, 12.6549286], [14.2634327, 12.6625944], [14.2654257, 12.6662777], [14.245132, 12.6765607], [14.2410312, 12.6817207], [14.2407437, 12.6876658], [14.2369878, 12.689821], [14.2309048, 12.6845652], [14.2294281, 12.680331], [14.2244558, 12.674972], [14.2085917, 12.6635172], [14.2146751, 12.6552121], [14.2206951, 12.6523652], [14.2319642, 12.6514611], [14.2349565, 12.6491849], [14.2447916, 12.6375659], [14.2456894, 12.6305565], [14.2548695, 12.6124712], [14.2664706, 12.6108773], [14.2744169, 12.5962261], [14.2866684, 12.5917487], [14.2886066, 12.5865453], [14.2869922, 12.5729562], [14.2882887, 12.5710569], [14.2986085, 12.5757302], [14.3023928, 12.5750819], [14.3069934, 12.5715474], [14.3088804, 12.5661053], [14.3140096, 12.5576353], [14.315893, 12.5498514], [14.3205532, 12.5491846], [14.3245748, 12.5459486], [14.3332976, 12.5440534], [14.3385723, 12.5307504], [14.3375658, 12.5244586], [14.338901, 12.5184062], [14.3364305, 12.5118563], [14.3369545, 12.5089771], [14.3459326, 12.5053555], [14.3532439, 12.4917251], [14.345876, 12.4884287], [14.346919, 12.4823833], [14.3393169, 12.4676149], [14.3397644, 12.4610071], [14.3414743, 12.4589646], [14.3534041, 12.4570064], [14.349504, 12.4519193], [14.3491483, 12.4487705], [14.3516033, 12.4404015], [14.3572868, 12.4328298], [14.3668213, 12.4280491], [14.3805058, 12.4263425], [14.3804467, 12.4234751], [14.373308, 12.4170185], [14.3702727, 12.4113415], [14.3725059, 12.4064188], [14.3980148, 12.3978783], [14.4077974, 12.3910848], [14.4171325, 12.3708048], [14.4155765, 12.3682617], [14.4228506, 12.3627382], [14.4281519, 12.3701958], [14.4338122, 12.3698393], [14.43922, 12.3676526], [14.4441739, 12.3617586], [14.4428279, 12.3529805], [14.4458142, 12.3497542], [14.454351, 12.3564039], [14.4653076, 12.3603242], [14.4682816, 12.3582734], [14.474965, 12.3462887], [14.477614, 12.3466907], [14.481067, 12.3521097], [14.48482, 12.3517087], [14.48757, 12.3462487], [14.483375, 12.3431677], [14.483154, 12.3414217], [14.492548, 12.3374877], [14.497951, 12.3306537], [14.513727, 12.3296297], [14.52005, 12.3275297], [14.522318, 12.3179357], [14.521073, 12.3149247], [14.518263, 12.3141627], [14.513285, 12.3173137], [14.510235, 12.3146037], [14.515152, 12.3050797], [14.511118, 12.2970677], [14.51451, 12.2962847], [14.520471, 12.2976697], [14.526794, 12.2907347], [14.535465, 12.2888077], [14.547467, 12.2809097], [14.547689, 12.2789227], [14.544557, 12.2757317], [14.543473, 12.2717667], [14.549174, 12.2583597], [14.552486, 12.2567337], [14.557925, 12.2607877], [14.559531, 12.2591417], [14.555436, 12.2465067], [14.548531, 12.2417497], [14.549615, 12.2363007], [14.557312, 12.2356557], [14.567399, 12.2325877], [14.570992, 12.2309317], [14.574263, 12.2270177], [14.580686, 12.2292657], [14.589758, 12.2295267], [14.594134, 12.2277997], [14.596061, 12.2225217], [14.592026, 12.2195207], [14.592047, 12.2174127], [14.594877, 12.2153857], [14.601936, 12.2141027], [14.609027, 12.2008137], [14.605796, 12.1986867], [14.598935, 12.1981927], [14.597406, 12.1959967], [14.598108, 12.1939997], [14.603427, 12.1944007], [14.609507, 12.1914207], [14.614687, 12.1923337], [14.615792, 12.1902057], [14.613022, 12.1879577], [14.613523, 12.1860007], [14.617598, 12.1862217], [14.622335, 12.1834117], [14.628376, 12.1823277], [14.629942, 12.1854997], [14.626389, 12.1889517], [14.626811, 12.1915007], [14.632451, 12.1949427], [14.636365, 12.1915107], [14.638814, 12.1913097], [14.641865, 12.1977727], [14.644955, 12.1950237], [14.648448, 12.1941597], [14.653787, 12.1977727], [14.658905, 12.1981547], [14.664144, 12.1925147], [14.6710628, 12.1925045], [14.6721534, 12.1937042], [14.6709973, 12.1977443], [14.6870207, 12.2042224], [14.6931848, 12.2019993], [14.7025958, 12.2021529], [14.7054, 12.2005238], [14.7097078, 12.1944985], [14.7279878, 12.1862617], [14.7377107, 12.1844871], [14.7505009, 12.1850931], [14.7664076, 12.1903464], [14.7741405, 12.1868671], [14.7842699, 12.1875273], [14.7971543, 12.1924922], [14.8054839, 12.1919676], [14.8088909, 12.1936417], [14.8107375, 12.1969194], [14.8111331, 12.2190797], [14.8131484, 12.2300346], [14.8045576, 12.2429596], [14.8101232, 12.2660587], [14.808411, 12.2688876], [14.8062857, 12.2691083], [14.8025016, 12.2665695], [14.7972027, 12.2677294], [14.7861715, 12.2665669], [14.7794865, 12.2693266], [14.7784638, 12.2712689], [14.7793932, 12.2731698], [14.7866239, 12.2791262], [14.7902923, 12.2844602], [14.7909389, 12.2896828], [14.7830345, 12.2935173], [14.7720577, 12.303002], [14.7476263, 12.3061367], [14.7436464, 12.31495], [14.7337586, 12.3256331], [14.7211814, 12.3351519], [14.7139566, 12.3377479], [14.7080805, 12.3369982], [14.696744, 12.330078], [14.683786, 12.3303491], [14.6811578, 12.331975], [14.6823324, 12.3452202], [14.6725663, 12.3576465], [14.6626672, 12.3597731], [14.6538552, 12.3547194], [14.6504822, 12.3547896], [14.6324104, 12.3651171], [14.6180075, 12.3809568], [14.5874872, 12.3866526], [14.5870072, 12.389107], [14.5904556, 12.3925282], [14.5885355, 12.394139], [14.5789359, 12.3938137], [14.5676481, 12.3893313], [14.5643001, 12.3906224], [14.5614294, 12.3976665], [14.5579298, 12.400183], [14.5479958, 12.4009114], [14.5379444, 12.4044355], [14.5326126, 12.4127523], [14.5296262, 12.4143847], [14.5183889, 12.4123441], [14.5170421, 12.4158643], [14.5187594, 12.4214179], [14.5162125, 12.4270585], [14.5119912, 12.4290661], [14.4958672, 12.4313163], [14.49324, 12.4331156], [14.4936456, 12.4439361], [14.4969888, 12.4446345], [14.5022224, 12.4428686], [14.5041791, 12.436873], [14.5064072, 12.43478], [14.5236925, 12.4461522], [14.5310444, 12.4623809], [14.533766, 12.4656747], [14.5393005, 12.4676083], [14.5408668, 12.4699961], [14.5405475, 12.4772614], [14.5465673, 12.4842092], [14.5532613, 12.5049161], [14.5497792, 12.5103862], [14.5508418, 12.5157612], [14.5425619, 12.5183513], [14.5426177, 12.5209558], [14.5473095, 12.5232787], [14.5575479, 12.5325583], [14.5631823, 12.5478892], [14.5608535, 12.5540796], [14.5684639, 12.5643436], [14.5639434, 12.5875155], [14.5674486, 12.5919084], [14.5660138, 12.5956616], [14.5627097, 12.6005692], [14.5584219, 12.6038225], [14.5494416, 12.6179687], [14.5321655, 12.620934], [14.5184161, 12.63369], [14.5070315, 12.6683588], [14.4933567, 12.6935844], [14.4850254, 12.7028784]]]}}, {"type": "Feature", "properties": {"district": "Maroua 1", "source": "Maroua I"}, "geometry": {"type": "Polygon", "coordinates": [[[14.2764596, 10.6227704], [14.2655173, 10.6239555], [14.2535872, 10.6216526], [14.2439573, 10.6108019], [14.2140983, 10.6004538], [14.2066533, 10.5990763], [14.2018002, 10.6013257], [14.2004855, 10.6033498], [14.201422, 10.6088401], [14.194886, 10.6212968], [14.1941133, 10.625481], [14.1899933, 10.6262171], [14.1796317, 10.6318946], [14.1698595, 10.6425693], [14.160458, 10.6452271], [14.1562195, 10.6439624], [14.1521355, 10.6418606], [14.1451814, 10.6334685], [14.1629885, 10.571948], [14.1679632, 10.5491494], [14.1747157, 10.4952759], [14.1714801, 10.4847276], [14.178672, 10.478512], [14.191315, 10.4769122], [14.2011003, 10.4728045], [14.2085165, 10.4673422], [14.2179137, 10.4681168], [14.2178826, 10.4662597], [14.2152677, 10.4642128], [14.2166088, 10.4602433], [14.2275463, 10.4602088], [14.2298125, 10.4589525], [14.2332836, 10.456109], [14.2316071, 10.4505638], [14.2368458, 10.4482137], [14.2366202, 10.4452569], [14.2441277, 10.4418246], [14.2450481, 10.4442475], [14.246634, 10.4443955], [14.2466018, 10.4424804], [14.2512715, 10.4377016], [14.2558121, 10.4357111], [14.2627123, 10.4380352], [14.2664086, 10.4381483], [14.2683193, 10.4366968], [14.2759107, 10.4686904], [14.2826632, 10.4902164], [14.3871978, 10.534255], [14.4134359, 10.5417909], [14.4199053, 10.5488754], [14.4254436, 10.5481327], [14.4296717, 10.5536269], [14.4350686, 10.5563679], [14.4286284, 10.5702609], [14.4215616, 10.5989369], [14.3863724, 10.5993106], [14.3816199, 10.5959099], [14.3717109, 10.5928295], [14.3609284, 10.593478], [14.3453364, 10.6009407], [14.3411763, 10.599546], [14.3362188, 10.5991079], [14.3301781, 10.6009083], [14.3218215, 10.5985688], [14.315837, 10.6036328], [14.3107265, 10.6058088], [14.2944005, 10.6083049], [14.2919741, 10.6130475], [14.2858027, 10.61498], [14.2764596, 10.6227704]]]}}, {"type": "Feature", "properties": {"district": "Maroua 2", "source": "Maroua II"}, "geometry": {"type": "Polygon", "coordinates": [[[14.2764596, 10.6227704], [14.2858027, 10.61498], [14.2919741, 10.6130475], [14.2944005, 10.6083049], [14.3107265, 10.6058088], [14.315837, 10.6036328], [14.3218215, 10.5985688], [14.3301781, 10.6009083], [14.3362188, 10.5991079], [14.3411763, 10.599546], [14.339836, 10.6059677], [14.3482223, 10.6100037], [14.3424681, 10.6206795], [14.3395369, 10.6571061], [14.3317974, 10.6798356], [14.3284072, 10.6859529], [14.3183895, 10.6821202], [14.314685, 10.6728401], [14.3092808, 10.6724322], [14.2989374, 10.6644334], [14.2977905, 10.6469346], [14.2934571, 10.6401675], [14.2843911, 10.6328136], [14.279349, 10.624056], [14.2764596, 10.6227704]]]}}, {"type": "Feature", "properties": {"district": "Maroua 3", "source": "Maroua III"}, "geometry": {"type": "Polygon", "coordinates": [[[14.3411763, 10.599546], [14.3453364, 10.6009407], [14.3609284, 10.593478], [14.3717109, 10.5928295], [14.3816199, 10.5959099], [14.3863724, 10.5993106], [14.4215616, 10.5989369], [14.4294539, 10.6073892], [14.4422958, 10.6104551], [14.4470364, 10.6131583], [14.4538729, 10.6105635], [14.4688236, 10.61216], [14.4850746, 10.6112571], [14.5073778, 10.6164365], [14.5217829, 10.6242821], [14.5281973, 10.6444747], [14.5048684, 10.6739346], [14.5013959, 10.6848887], [14.4991264, 10.687215], [14.4952979, 10.7124308], [14.4918829, 10.7190808], [14.4983534, 10.7309353], [14.5014963, 10.7318217], [14.5034756, 10.7359548], [14.508965, 10.7386816], [14.507365, 10.7404581], [14.5089482, 10.7452713], [14.515126, 10.7521548], [14.5178709, 10.7609814], [14.5172259, 10.762876], [14.5645367, 10.8062686], [14.567689, 10.8075567], [14.5729763, 10.8066541], [14.5781803, 10.8085768], [14.579194, 10.8119203], [14.580698, 10.812296], [14.5805657, 10.819828], [14.5823531, 10.8208716], [14.5823281, 10.8195282], [14.585196, 10.820148], [14.5860683, 10.8232251], [14.5887634, 10.8218312], [14.5884314, 10.8186104], [14.5917267, 10.8202984], [14.5942447, 10.8240174], [14.5929198, 10.8259244], [14.6331202, 10.8836669], [14.5982681, 10.8612512], [14.571844, 10.8617326], [14.5465807, 10.8498128], [14.5182348, 10.8214428], [14.4472555, 10.742931], [14.4247858, 10.730945], [14.4110761, 10.7421891], [14.4143004, 10.7668924], [14.4276086, 10.8106745], [14.4255962, 10.853351], [14.4073981, 11.0006826], [14.3874825, 10.9960104], [14.3680756, 10.9838282], [14.3654473, 10.9786979], [14.3665209, 10.9726656], [14.357765, 10.9651382], [14.3538996, 10.966375], [14.3457354, 10.9541596], [14.3376464, 10.9554704], [14.3231097, 10.9507146], [14.3199715, 10.9547779], [14.3150591, 10.954196], [14.3118122, 10.9522485], [14.3124291, 10.948897], [14.3084859, 10.9457928], [14.3022275, 10.9360472], [14.2978698, 10.9381273], [14.2944159, 10.934011], [14.2917159, 10.9342256], [14.2897376, 10.9370987], [14.2855465, 10.939009], [14.282796, 10.9363847], [14.2820068, 10.930051], [14.277325, 10.9281277], [14.2741258, 10.9288508], [14.2730395, 10.9272163], [14.2617137, 10.916521], [14.2659278, 10.8995731], [14.274365, 10.8850797], [14.2749168, 10.8780629], [14.2879655, 10.8523112], [14.2903548, 10.8394245], [14.2908815, 10.8213971], [14.2941291, 10.8141664], [14.2969744, 10.7984357], [14.3286294, 10.7515117], [14.3341703, 10.7404058], [14.333823, 10.7302355], [14.3291189, 10.7072942], [14.3310627, 10.6930808], [14.3302885, 10.6874216], [14.3284072, 10.6859529], [14.3317974, 10.6798356], [14.3395369, 10.6571061], [14.3424681, 10.6206795], [14.3482223, 10.6100037], [14.339836, 10.6059677], [14.3411763, 10.599546]]]}}, {"type": "Feature", "properties": {"district": "Meri", "source": "Meri"}, "geometry": {"type": "Polygon", "coordinates": [[[14.0701905, 10.6379136], [14.0916604, 10.6441236], [14.1090909, 10.6302166], [14.1161269, 10.6272646], [14.1302932, 10.6270329], [14.1451814, 10.6334685], [14.1521355, 10.6418606], [14.1562195, 10.6439624], [14.160458, 10.6452271], [14.1698595, 10.6425693], [14.1796317, 10.6318946], [14.1899933, 10.6262171], [14.1941133, 10.625481], [14.194886, 10.6212968], [14.201422, 10.6088401], [14.2004855, 10.6033498], [14.2018002, 10.6013257], [14.2066533, 10.5990763], [14.2140983, 10.6004538], [14.2439573, 10.6108019], [14.2535872, 10.6216526], [14.2655173, 10.6239555], [14.2764596, 10.6227704], [14.279349, 10.624056], [14.2843911, 10.6328136], [14.2934571, 10.6401675], [14.2977905, 10.6469346], [14.2989374, 10.6644334], [14.3092808, 10.6724322], [14.314685, 10.6728401], [14.3183895, 10.6821202], [14.3284072, 10.6859529], [14.3302885, 10.6874216], [14.3310627, 10.6930808], [14.3291189, 10.7072942], [14.333823, 10.7302355], [14.3341703, 10.7404058], [14.3286294, 10.7515117], [14.2969744, 10.7984357], [14.2941291, 10.8141664], [14.2908815, 10.8213971], [14.2903548, 10.8394245], [14.2879655, 10.8523112], [14.2749168, 10.8780629], [14.274365, 10.8850797], [14.2659278, 10.8995731], [14.2617137, 10.916521], [14.2537779, 10.9059837], [14.2525309, 10.9023296], [14.2481347, 10.9022385], [14.2407732, 10.8727981], [14.2319244, 10.8692749], [14.2289879, 10.8656494], [14.2287436, 10.8613101], [14.2233428, 10.8520474], [14.2185723, 10.8497896], [14.2121817, 10.84188], [14.2056664, 10.836478], [14.2026575, 10.8383668], [14.1899193, 10.8395844], [14.1838866, 10.8425265], [14.1745261, 10.8386739], [14.1708058, 10.8385698], [14.1612442, 10.8328831], [14.157008, 10.8272746], [14.1445118, 10.8179602], [14.1400738, 10.8055047], [14.1322955, 10.7952759], [14.1289966, 10.7801271], [14.1267925, 10.7796625], [14.1219472, 10.7829168], [14.1037252, 10.7895674], [14.0868845, 10.7930206], [14.0768269, 10.797864], [14.0649817, 10.7962902], [14.0716404, 10.780745], [14.0728676, 10.7724832], [14.0635353, 10.7577747], [14.0564902, 10.7531612], [14.0560794, 10.744926], [14.0520486, 10.7367498], [14.0393252, 10.7274993], [14.0375075, 10.7084786], [14.034711, 10.7046051], [14.0350797, 10.697979], [14.0368035, 10.6948433], [14.0354041, 10.6845974], [14.0372611, 10.6811892], [14.0355525, 10.6770287], [14.0364917, 10.6676909], [14.0510644, 10.6609699], [14.0679173, 10.6475914], [14.0701905, 10.6379136]]]}}, {"type": "Feature", "properties": {"district": "Mindif", "source": "Mindif"}, "geometry": {"type": "Polygon", "coordinates": [[[14.5837321, 10.24732], [14.588314, 10.2522505], [14.5987936, 10.2693512], [14.6108563, 10.293624], [14.6240162, 10.2977155], [14.6351432, 10.3508012], [14.6483573, 10.3577692], [14.6632327, 10.376226], [14.6710756, 10.4077666], [14.6864029, 10.4506912], [14.6983901, 10.4715947], [14.6974996, 10.4730595], [14.5446314, 10.465831], [14.5002098, 10.4804063], [14.4604107, 10.5370773], [14.4520732, 10.5448571], [14.4528523, 10.5483237], [14.4434784, 10.5551539], [14.4350686, 10.5563679], [14.4296717, 10.5536269], [14.4254436, 10.5481327], [14.4199053, 10.5488754], [14.4134359, 10.5417909], [14.3871978, 10.534255], [14.2826632, 10.4902164], [14.2759107, 10.4686904], [14.2683193, 10.4366968], [14.2673361, 10.4334558], [14.2475279, 10.4198709], [14.2347152, 10.3961729], [14.2350761, 10.3933307], [14.2889467, 10.3678636], [14.3561778, 10.3828186], [14.3779718, 10.2810345], [14.4957211, 10.2424643], [14.5823139, 10.2485453], [14.5837321, 10.24732]]]}}, {"type": "Feature", "properties": {"district": "Mogode", "source": "Mogodé"}, "geometry": {"type": "Polygon", "coordinates": [[[13.6085178, 10.7013712], [13.6036806, 10.6984784], [13.5914606, 10.6970041], [13.5883185, 10.6977663], [13.5821628, 10.6879296], [13.5805669, 10.680963], [13.5869812, 10.6739995], [13.588799, 10.668944], [13.5789778, 10.6539696], [13.5736172, 10.6505138], [13.5746357, 10.6348222], [13.5638089, 10.6236793], [13.5484945, 10.6156938], [13.5472204, 10.6124378], [13.5562057, 10.5960609], [13.5554705, 10.5918456], [13.5669711, 10.5827064], [13.5676727, 10.5754727], [13.5617254, 10.5668337], [13.560013, 10.5540005], [13.5786365, 10.5367927], [13.5748434, 10.5284106], [13.5572898, 10.505437], [13.5406773, 10.4757486], [13.53061, 10.4684721], [13.5307613, 10.457489], [13.5402969, 10.4470579], [13.5357508, 10.4283229], [13.537292, 10.4191398], [13.5512099, 10.4132407], [13.5587027, 10.4138237], [13.5753504, 10.4037649], [13.5823886, 10.3971177], [13.5875705, 10.3944589], [13.5892675, 10.3915052], [13.6006626, 10.3971992], [13.610071, 10.3979261], [13.6177872, 10.401949], [13.621244, 10.4003482], [13.6272001, 10.4030189], [13.6323406, 10.3976044], [13.6301865, 10.3931555], [13.6329069, 10.3888096], [13.6385272, 10.3923461], [13.6651911, 10.3950591], [13.6831659, 10.3868726], [13.6858746, 10.3818371], [13.6846399, 10.3724358], [13.7169993, 10.3929822], [13.7284986, 10.4228902], [13.7315626, 10.4369571], [13.7433462, 10.4910264], [13.7687929, 10.5289232], [13.7639007, 10.5700103], [13.6706249, 10.6151601], [13.6085178, 10.7013712]]]}}, {"type": "Feature", "properties": {"district": "Mokolo", "source": "Mokolo"}, "geometry": {"type": "Polygon", "coordinates": [[[13.6085178, 10.7013712], [13.6706249, 10.6151601], [13.7639007, 10.5700103], [13.7687929, 10.5289232], [13.7433462, 10.4910264], [13.7315626, 10.4369571], [13.7507571, 10.4334972], [13.794983, 10.4355689], [13.8333881, 10.4185856], [13.8743782, 10.3906243], [13.9069932, 10.3573226], [13.9423619, 10.3239783], [13.9606615, 10.3236386], [13.9704662, 10.3540413], [13.9781797, 10.3671642], [13.9768922, 10.3720486], [13.9782186, 10.3782442], [13.9766735, 10.3884025], [13.9806565, 10.4071231], [13.9860597, 10.4121735], [13.98744, 10.4174218], [13.9903533, 10.420348], [13.9841592, 10.4342278], [13.9821461, 10.4449342], [13.987413, 10.4541748], [14.0000988, 10.4620831], [14.0289568, 10.4612225], [14.0382157, 10.4597253], [14.0413264, 10.4579188], [14.0438631, 10.4589059], [14.0585352, 10.4795338], [14.0678998, 10.4845185], [14.0838044, 10.4804806], [14.0883397, 10.4823002], [14.0928171, 10.488983], [14.0892149, 10.506604], [14.0770269, 10.5126095], [14.0741309, 10.5275173], [14.0758409, 10.5360018], [14.0827664, 10.5503461], [14.0891639, 10.5574032], [14.090452, 10.5610306], [14.0895307, 10.5630718], [14.0812458, 10.5657725], [14.0774557, 10.5636721], [14.0710559, 10.5647202], [14.0650013, 10.5702221], [14.0571232, 10.5727806], [14.0560672, 10.5749602], [14.0568665, 10.5821079], [14.0621349, 10.5910749], [14.0549948, 10.5969998], [14.0558044, 10.604688], [14.0617572, 10.6178328], [14.0704953, 10.6301211], [14.0701905, 10.6379136], [14.0679173, 10.6475914], [14.0510644, 10.6609699], [14.0364917, 10.6676909], [14.0208258, 10.6763699], [14.0075093, 10.6899763], [13.9779424, 10.7105396], [13.9256948, 10.7247656], [13.9066565, 10.7339965], [13.8961706, 10.7486727], [13.8879634, 10.7995901], [13.8834745, 10.8159926], [13.8651527, 10.8213099], [13.8490637, 10.8074863], [13.8465618, 10.8037049], [13.8408586, 10.8031905], [13.8355165, 10.7998558], [13.8257555, 10.8000086], [13.8079653, 10.8069231], [13.8064157, 10.8117745], [13.8087648, 10.8187758], [13.8215579, 10.8300396], [13.8208636, 10.8374905], [13.8160404, 10.8411864], [13.8113169, 10.8511153], [13.8115848, 10.8551326], [13.8172155, 10.8636923], [13.8166504, 10.8665158], [13.8130339, 10.8693884], [13.7990213, 10.8710154], [13.7869728, 10.8746237], [13.7778863, 10.8789888], [13.7672488, 10.8882043], [13.7716293, 10.9076451], [13.7760368, 10.9160231], [13.7786325, 10.9256361], [13.7787894, 10.9290524], [13.7756078, 10.9337279], [13.7791639, 10.9397053], [13.7825326, 10.9518177], [13.7911272, 10.9811488], [13.789012, 10.9888242], [13.7920189, 10.9912614], [13.7895693, 11.002904], [13.775705, 11.00168], [13.772102, 11.003158], [13.760972, 11.001766], [13.748258, 11.005429], [13.735527, 11.006136], [13.731405, 10.999965], [13.730417, 10.986783], [13.732359, 10.982807], [13.729746, 10.977194], [13.72352, 10.969291], [13.723778, 10.966333], [13.717247, 10.96419], [13.712314, 10.964312], [13.710398, 10.959892], [13.710698, 10.949322], [13.712548, 10.945458], [13.711677, 10.942629], [13.714588, 10.941091], [13.714235, 10.938724], [13.722895, 10.933894], [13.730187, 10.923746], [13.725186, 10.903194], [13.720451, 10.89826], [13.720408, 10.88141], [13.716762, 10.863064], [13.709953, 10.85892], [13.703476, 10.858414], [13.701752, 10.856037], [13.702465, 10.85366], [13.700528, 10.847389], [13.683829, 10.847294], [13.679274, 10.84032], [13.677946, 10.834675], [13.675052, 10.833442], [13.675384, 10.827464], [13.672977, 10.822193], [13.672323, 10.814407], [13.665905, 10.81209], [13.661815, 10.814242], [13.653782, 10.815596], [13.650513, 10.812922], [13.638449, 10.787011], [13.648486, 10.786302], [13.648808, 10.783042], [13.656254, 10.780234], [13.655777, 10.776461], [13.64788, 10.772274], [13.645548, 10.768589], [13.647203, 10.767109], [13.646401, 10.760979], [13.64793, 10.758547], [13.642813, 10.746576], [13.641125, 10.749147], [13.639266, 10.749192], [13.636029, 10.744808], [13.633543, 10.747809], [13.632574, 10.747374], [13.631972, 10.738098], [13.627894, 10.726047], [13.622378, 10.722102], [13.627092, 10.716787], [13.626691, 10.711472], [13.6085178, 10.7013712]]]}}, {"type": "Feature", "properties": {"district": "Mora", "source": "Mora"}, "geometry": {"type": "Polygon", "coordinates": [[[14.4658215, 11.4265443], [14.459891, 11.425766], [14.453752, 11.421915], [14.449139, 11.420815], [14.432441, 11.422296], [14.427005, 11.417273], [14.418928, 11.404793], [14.395846, 11.384838], [14.364256, 11.359303], [14.339032, 11.341635], [14.273822, 11.306675], [14.239121, 11.296185], [14.232974, 11.286599], [14.229986, 11.276336], [14.217367, 11.260713], [14.20682, 11.25796], [14.204676, 11.255668], [14.202436, 11.25603], [14.202445, 11.252998], [14.192558, 11.242944], [14.18887, 11.244047], [14.186293, 11.240847], [14.178016, 11.239804], [14.174329, 11.241887], [14.17005, 11.241747], [14.168002, 11.244357], [14.165914, 11.24398], [14.161588, 11.247453], [14.15573, 11.24214], [14.1375455, 11.1631734], [14.1159551, 11.0999722], [14.0739589, 11.0399979], [13.999817, 10.9805425], [13.9780934, 10.9694405], [13.9825355, 10.941108], [13.9848572, 10.9383968], [13.9855812, 10.9210051], [13.9970814, 10.8959193], [14.0019218, 10.8921634], [14.0143396, 10.8866128], [14.0172327, 10.8877358], [14.0211844, 10.8847039], [14.0677233, 10.910986], [14.0946566, 10.9463149], [14.1096863, 10.9590731], [14.1310181, 10.9554613], [14.1767412, 10.9351743], [14.2210667, 10.929541], [14.2730395, 10.9272163], [14.2741258, 10.9288508], [14.277325, 10.9281277], [14.2820068, 10.930051], [14.282796, 10.9363847], [14.2855465, 10.939009], [14.2897376, 10.9370987], [14.2917159, 10.9342256], [14.2944159, 10.934011], [14.2978698, 10.9381273], [14.3022275, 10.9360472], [14.3084859, 10.9457928], [14.3124291, 10.948897], [14.3118122, 10.9522485], [14.3150591, 10.954196], [14.3199715, 10.9547779], [14.3231097, 10.9507146], [14.3376464, 10.9554704], [14.3457354, 10.9541596], [14.3538996, 10.966375], [14.357765, 10.9651382], [14.3665209, 10.9726656], [14.3654473, 10.9786979], [14.3680756, 10.9838282], [14.3874825, 10.9960104], [14.4073981, 11.0006826], [14.412196, 11.0025838], [14.4151606, 11.0075406], [14.420761, 11.0087767], [14.4213322, 11.0122733], [14.4335475, 11.0239108], [14.4333924, 11.0384423], [14.4344464, 11.0405941], [14.4414336, 11.0436406], [14.4427036, 11.0482941], [14.4514918, 11.0573202], [14.4606996, 11.070679], [14.484689, 11.0924514], [14.4887733, 11.1028973], [14.4983314, 11.1132361], [14.5009383, 11.1141082], [14.4971706, 11.1179388], [14.4940727, 11.1240066], [14.4877312, 11.1284644], [14.4809112, 11.1434504], [14.4825172, 11.1479293], [14.4795495, 11.1610078], [14.4797222, 11.1701891], [14.4844552, 11.1924782], [14.482633, 11.1945154], [14.4824443, 11.2113838], [14.4847787, 11.2185214], [14.4848934, 11.2290386], [14.470752, 11.2505063], [14.4627255, 11.2955733], [14.463415, 11.3140965], [14.4605148, 11.3261739], [14.4713483, 11.3618746], [14.4737158, 11.3838715], [14.4727689, 11.3962459], [14.4658215, 11.4265443]]]}}, {"type": "Feature", "properties": {"district": "Moulvoudaye", "source": "Moulvoudaye"}, "geometry": {"type": "Polygon", "coordinates": [[[14.6200698, 10.1895908], [14.7155329, 10.1770359], [14.8078479, 10.2671188], [14.84928, 10.3119821], [14.8583579, 10.3054744], [14.8652189, 10.3062417], [14.8639328, 10.308596], [14.8920297, 10.3256345], [14.9838195, 10.409865], [14.9687355, 10.4275198], [14.8979286, 10.5099132], [14.8133394, 10.6085256], [14.810966, 10.6414632], [14.7857344, 10.6572877], [14.6871416, 10.5808817], [14.68989, 10.54753], [14.7333212, 10.5235048], [14.6974996, 10.4730595], [14.6983901, 10.4715947], [14.6864029, 10.4506912], [14.6710756, 10.4077666], [14.6632327, 10.376226], [14.6483573, 10.3577692], [14.6351432, 10.3508012], [14.6240162, 10.2977155], [14.6108563, 10.293624], [14.5987936, 10.2693512], [14.588314, 10.2522505], [14.5837321, 10.24732], [14.5940923, 10.1935325], [14.6200698, 10.1895908]]]}}, {"type": "Feature", "properties": {"district": "Moutourwa", "source": "Moutourwa"}, "geometry": {"type": "Polygon", "coordinates": [[[14.2350761, 10.3933307], [14.1311135, 10.3605664], [14.0637541, 10.3550155], [14.0615217, 10.3519441], [14.0557527, 10.3496031], [14.0481003, 10.3489124], [14.047637, 10.3370306], [14.0491826, 10.3355195], [14.0495293, 10.3315964], [14.0446203, 10.2847892], [14.0491268, 10.2636414], [14.0566419, 10.2386644], [14.0477176, 10.1707658], [14.047021, 10.1583467], [14.0517617, 10.1562422], [14.0567812, 10.1494713], [14.057339, 10.1394061], [14.0609642, 10.136661], [14.0646824, 10.1275105], [14.0631768, 10.1245929], [14.0657514, 10.1258097], [14.0674246, 10.1236593], [14.0685882, 10.1149787], [14.0737704, 10.1089618], [14.0763266, 10.1098312], [14.0794261, 10.1072313], [14.0899582, 10.1141169], [14.0956285, 10.111097], [14.1019494, 10.1142084], [14.1014741, 10.1190363], [14.104295, 10.1261678], [14.2004822, 10.0954915], [14.2092218, 10.0909897], [14.2106623, 10.1043606], [14.2052894, 10.131825], [14.1981125, 10.1377026], [14.2027536, 10.1549212], [14.2144567, 10.1590581], [14.2218444, 10.166144], [14.2192649, 10.1863589], [14.2270296, 10.2164945], [14.2469573, 10.2781321], [14.2428317, 10.2926085], [14.2300976, 10.3144286], [14.2292873, 10.353348], [14.2324377, 10.3677052], [14.2350761, 10.3933307]]]}}, {"type": "Feature", "properties": {"district": "Mozogo", "source": "Mozogo"}, "geometry": {"type": "Polygon", "coordinates": [[[13.7825326, 10.9518177], [13.8020819, 10.9563609], [13.8118711, 10.9496867], [13.8232164, 10.9465438], [13.8259483, 10.9485749], [13.839295, 10.9486594], [13.84563, 10.9509293], [13.848628, 10.9508816], [13.8533667, 10.9472502], [13.8617663, 10.9474126], [13.8651173, 10.9506186], [13.869619, 10.9508429], [13.8750838, 10.9549039], [13.8828789, 10.954779], [13.8855965, 10.9559206], [13.8853259, 10.9577029], [13.8886138, 10.9570574], [13.8928694, 10.9605448], [13.9084713, 10.9544959], [13.9103595, 10.9492713], [13.9202279, 10.9444786], [13.926626, 10.9481165], [13.9276345, 10.9502442], [13.930424, 10.9491277], [13.9324196, 10.9521297], [13.9353056, 10.950792], [13.9383955, 10.9541521], [13.9385135, 10.9588394], [13.9403589, 10.9621468], [13.9383633, 10.9640217], [13.9375801, 10.9677293], [13.9377947, 10.9745335], [13.9460881, 10.9784411], [13.9456811, 10.9804481], [13.9430089, 10.9797186], [13.9419294, 10.981245], [13.9463456, 10.9856873], [13.9454229, 10.9909955], [13.9483948, 10.9947028], [13.947154, 10.9985116], [13.9506516, 10.9986696], [13.9501581, 11.0005864], [13.9466605, 11.0018186], [13.9409956, 11.0078321], [13.9409249, 11.0190296], [13.9440323, 11.0254972], [13.9417526, 11.0326454], [13.9459802, 11.034354], [13.9460945, 11.0411679], [13.9479538, 11.0446929], [13.9519215, 11.0487758], [13.9569366, 11.0503034], [13.9623691, 11.0545716], [13.9637985, 11.0590599], [13.9595699, 11.0691557], [13.9490353, 11.0815285], [13.9466559, 11.090926], [13.9364526, 11.1079721], [13.9334185, 11.1086912], [13.9158441, 11.1201768], [13.9122972, 11.1205684], [13.9092942, 11.1231243], [13.9005216, 11.1247718], [13.8937031, 11.1319033], [13.880181, 11.136922], [13.880784, 11.133885], [13.874432, 11.127261], [13.872337, 11.127011], [13.871624, 11.123628], [13.867919, 11.122455], [13.868771, 11.120192], [13.864938, 11.11445], [13.86192, 11.111684], [13.858977, 11.111725], [13.861781, 11.106481], [13.860132, 11.105459], [13.86007, 11.103221], [13.856973, 11.101785], [13.858346, 11.099302], [13.8576, 11.097503], [13.859888, 11.094977], [13.856082, 11.09566], [13.855706, 11.094174], [13.853328, 11.094015], [13.851371, 11.091903], [13.851733, 11.089343], [13.846778, 11.089848], [13.847523, 11.087547], [13.84563, 11.085252], [13.839502, 11.08624], [13.840099, 11.083889], [13.837884, 11.08218], [13.838639, 11.079447], [13.834871, 11.07815], [13.832953, 11.079839], [13.830257, 11.079097], [13.829076, 11.072118], [13.825527, 11.0653], [13.821816, 11.065189], [13.818903, 11.06834], [13.815686, 11.065952], [13.814855, 11.056696], [13.812476, 11.056741], [13.812546, 11.048883], [13.807731, 11.042508], [13.808588, 11.03881], [13.806909, 11.039276], [13.806834, 11.036027], [13.804319, 11.035661], [13.804224, 11.032751], [13.800226, 11.029998], [13.80198, 11.027325], [13.796503, 11.021721], [13.79687, 11.018922], [13.795594, 11.01759], [13.798723, 11.013579], [13.792378, 11.004299], [13.7895693, 11.002904], [13.7920189, 10.9912614], [13.789012, 10.9888242], [13.7911272, 10.9811488], [13.7825326, 10.9518177]]]}}, {"type": "Feature", "properties": {"district": "Pette", "source": "Pétté"}, "geometry": {"type": "Polygon", "coordinates": [[[14.5009383, 11.1141082], [14.4983314, 11.1132361], [14.4887733, 11.1028973], [14.484689, 11.0924514], [14.4606996, 11.070679], [14.4514918, 11.0573202], [14.4427036, 11.0482941], [14.4414336, 11.0436406], [14.4344464, 11.0405941], [14.4333924, 11.0384423], [14.4335475, 11.0239108], [14.4213322, 11.0122733], [14.420761, 11.0087767], [14.4151606, 11.0075406], [14.412196, 11.0025838], [14.4073981, 11.0006826], [14.4255962, 10.853351], [14.4276086, 10.8106745], [14.4143004, 10.7668924], [14.4110761, 10.7421891], [14.4247858, 10.730945], [14.4472555, 10.742931], [14.5182348, 10.8214428], [14.5465807, 10.8498128], [14.571844, 10.8617326], [14.5982681, 10.8612512], [14.6331202, 10.8836669], [14.7342543, 11.0007716], [14.7748607, 11.0398148], [14.7646486, 11.0478232], [14.7268442, 11.0240064], [14.7016188, 11.0301592], [14.6936764, 11.0344816], [14.6776763, 11.0477139], [14.5473262, 11.1549163], [14.5009383, 11.1141082]]]}}, {"type": "Feature", "properties": {"district": "Roua", "source": "Soulédé-Roua"}, "geometry": {"type": "Polygon", "coordinates": [[[14.0364917, 10.6676909], [14.0355525, 10.6770287], [14.0372611, 10.6811892], [14.0354041, 10.6845974], [14.0368035, 10.6948433], [14.0350797, 10.697979], [14.034711, 10.7046051], [14.0375075, 10.7084786], [14.0393252, 10.7274993], [14.0520486, 10.7367498], [14.0560794, 10.744926], [14.0564902, 10.7531612], [14.0635353, 10.7577747], [14.0728676, 10.7724832], [14.0716404, 10.780745], [14.0649817, 10.7962902], [14.0603093, 10.7954624], [14.0552593, 10.7967144], [14.0485773, 10.8013351], [14.0172959, 10.8358011], [13.9984818, 10.8461157], [13.9935917, 10.8455914], [13.9841849, 10.842528], [13.9644144, 10.8400328], [13.9327535, 10.8318958], [13.9216646, 10.8254377], [13.910851, 10.8233988], [13.904288, 10.8200852], [13.8986728, 10.8250011], [13.8949047, 10.8184251], [13.8893782, 10.8163001], [13.8834745, 10.8159926], [13.8879634, 10.7995901], [13.8961706, 10.7486727], [13.9066565, 10.7339965], [13.9256948, 10.7247656], [13.9779424, 10.7105396], [14.0075093, 10.6899763], [14.0208258, 10.6763699], [14.0364917, 10.6676909]]]}}, {"type": "Feature", "properties": {"district": "Tokombere", "source": "Tokombéré"}, "geometry": {"type": "Polygon", "coordinates": [[[14.0211844, 10.8847039], [14.0216199, 10.8779696], [14.0190529, 10.8601348], [14.0165944, 10.854661], [14.0172959, 10.8358011], [14.0485773, 10.8013351], [14.0552593, 10.7967144], [14.0603093, 10.7954624], [14.0649817, 10.7962902], [14.0768269, 10.797864], [14.0868845, 10.7930206], [14.1037252, 10.7895674], [14.1219472, 10.7829168], [14.1267925, 10.7796625], [14.1289966, 10.7801271], [14.1322955, 10.7952759], [14.1400738, 10.8055047], [14.1445118, 10.8179602], [14.157008, 10.8272746], [14.1612442, 10.8328831], [14.1708058, 10.8385698], [14.1745261, 10.8386739], [14.1838866, 10.8425265], [14.1899193, 10.8395844], [14.2026575, 10.8383668], [14.2056664, 10.836478], [14.2121817, 10.84188], [14.2185723, 10.8497896], [14.2233428, 10.8520474], [14.2287436, 10.8613101], [14.2289879, 10.8656494], [14.2319244, 10.8692749], [14.2407732, 10.8727981], [14.2481347, 10.9022385], [14.2525309, 10.9023296], [14.2537779, 10.9059837], [14.2617137, 10.916521], [14.2730395, 10.9272163], [14.2210667, 10.929541], [14.1767412, 10.9351743], [14.1310181, 10.9554613], [14.1096863, 10.9590731], [14.0946566, 10.9463149], [14.0677233, 10.910986], [14.0211844, 10.8847039]]]}}, {"type": "Feature", "properties": {"district": "Vele", "source": "Guémé"}, "geometry": {"type": "Polygon", "coordinates": [[[14.8979286, 10.5099132], [14.9687355, 10.4275198], [14.9808838, 10.4271998], [14.9868467, 10.4205609], [14.9910669, 10.4198102], [14.9968117, 10.4253843], [15.0045922, 10.427269], [15.0100917, 10.4269977], [15.0166595, 10.4250293], [15.0231463, 10.4188706], [15.0320882, 10.4170247], [15.0353184, 10.4089156], [15.0443836, 10.4047201], [15.053568, 10.3980076], [15.0686872, 10.396044], [15.0766698, 10.3972339], [15.0922798, 10.3900634], [15.1133993, 10.3876485], [15.1267916, 10.3883974], [15.1407552, 10.3837712], [15.1440706, 10.3801869], [15.1429802, 10.3763521], [15.1603686, 10.3728055], [15.1674906, 10.3654746], [15.1773758, 10.3508967], [15.1973421, 10.3318095], [15.2091018, 10.3387758], [15.2196662, 10.3587118], [15.2288091, 10.3801122], [15.2305183, 10.3930259], [15.2427992, 10.4258725], [15.254528, 10.4363787], [15.2431702, 10.4555951], [15.2416252, 10.4663988], [15.2385353, 10.474839], [15.2170776, 10.494588], [15.204718, 10.4999892], [15.1892685, 10.5094412], [15.1813721, 10.5121417], [15.1724457, 10.5192304], [15.1569962, 10.5268252], [15.1500144, 10.5329177], [15.117081, 10.5230743], [15.0549427, 10.5399096], [14.9999923, 10.5335391], [14.921771, 10.5319751], [14.8979286, 10.5099132]]]}}, {"type": "Feature", "properties": {"district": "Waza", "source": "Waza"}, "geometry": {"type": "Polygon", "coordinates": [[[14.6100551, 11.7919427], [14.612234, 11.786819], [14.614921, 11.7879], [14.616047, 11.78654], [14.614129, 11.779434], [14.611086, 11.778737], [14.605818, 11.773148], [14.599037, 11.760839], [14.594809, 11.759174], [14.592907, 11.75669], [14.585561, 11.755448], [14.5872448, 11.7489641], [14.5863663, 11.7447906], [14.5774623, 11.7441836], [14.5729703, 11.7316193], [14.5656253, 11.7286202], [14.5598782, 11.7240108], [14.5558442, 11.72441], [14.5502008, 11.72025], [14.5491708, 11.7173926], [14.5531533, 11.7124628], [14.5554523, 11.7055667], [14.5688343, 11.7047807], [14.5710543, 11.7011336], [14.5847473, 11.6961655], [14.5970733, 11.6980885], [14.6007193, 11.6973155], [14.6035143, 11.6938774], [14.6054553, 11.6871293], [14.6092403, 11.6833242], [14.6101323, 11.676002], [14.6225973, 11.6705419], [14.6256693, 11.6671338], [14.6272743, 11.6591966], [14.6389263, 11.6551736], [14.6438533, 11.6499174], [14.6429883, 11.6415803], [14.6443473, 11.628784], [14.6471143, 11.6183547], [14.6508963, 11.6112396], [14.6519593, 11.6033914], [14.6447423, 11.5912051], [14.6462813, 11.5801599], [14.6480433, 11.5775648], [14.6469913, 11.5719967], [14.6365483, 11.5520163], [14.6302683, 11.5475302], [14.6251953, 11.5374789], [14.6207563, 11.5248767], [14.6185223, 11.5117764], [14.6167043, 11.5092343], [14.6060513, 11.5051932], [14.5987273, 11.4976741], [14.5868943, 11.496276], [14.5715963, 11.4905479], [14.5563543, 11.4784776], [14.5313543, 11.4706695], [14.5175063, 11.4682024], [14.4959213, 11.4445409], [14.4861355, 11.4389046], [14.482741, 11.444294], [14.479725, 11.441586], [14.473331, 11.429654], [14.4658215, 11.4265443], [14.4727689, 11.3962459], [14.4737158, 11.3838715], [14.4713483, 11.3618746], [14.4605148, 11.3261739], [14.463415, 11.3140965], [14.4627255, 11.2955733], [14.470752, 11.2505063], [14.4848934, 11.2290386], [14.4847787, 11.2185214], [14.4824443, 11.2113838], [14.482633, 11.1945154], [14.4844552, 11.1924782], [14.4797222, 11.1701891], [14.4795495, 11.1610078], [14.4825172, 11.1479293], [14.4809112, 11.1434504], [14.4877312, 11.1284644], [14.4940727, 11.1240066], [14.4971706, 11.1179388], [14.5009383, 11.1141082], [14.5473262, 11.1549163], [14.6776763, 11.0477139], [14.6900262, 11.0533193], [14.6983859, 11.0646292], [14.7165524, 11.0793117], [14.7422655, 11.117969], [14.7612976, 11.1322345], [14.7775812, 11.1390373], [14.7833335, 11.1464387], [14.8233726, 11.1765008], [14.8335687, 11.1857901], [14.8407888, 11.1897348], [14.8420249, 11.1914229], [14.8405533, 11.1979094], [14.8417883, 11.1995986], [14.8823564, 11.2418909], [14.8962459, 11.2716595], [14.8962057, 11.2827295], [14.8927912, 11.2953158], [14.8930525, 11.3015044], [14.8952849, 11.3062037], [14.8988542, 11.3110077], [14.9049339, 11.3144441], [14.9169678, 11.3314642], [14.9359447, 11.3516376], [14.9393308, 11.3603981], [14.9403085, 11.3656482], [14.9382312, 11.3813705], [14.943107, 11.410568], [14.9560653, 11.4430944], [14.9627868, 11.458654], [14.9655145, 11.4707875], [14.9612587, 11.4903776], [14.9558761, 11.4956351], [14.9532452, 11.5011061], [14.9457008, 11.5080333], [14.9378242, 11.5122576], [14.9145661, 11.5165259], [14.9110655, 11.5198471], [14.9098291, 11.5263743], [14.9137163, 11.5414652], [14.9113706, 11.5474728], [14.8999788, 11.5544785], [14.8857279, 11.5561235], [14.8822142, 11.5589039], [14.8809432, 11.5638065], [14.8829601, 11.5813742], [14.8797153, 11.5838792], [14.8756072, 11.5845041], [14.8714583, 11.5832341], [14.865263, 11.5760456], [14.8532725, 11.5676198], [14.8483286, 11.56772], [14.8190078, 11.5848396], [14.8188915, 11.5924282], [14.8121827, 11.6080178], [14.7958568, 11.6073143], [14.7894219, 11.6105764], [14.7851083, 11.6199326], [14.7810717, 11.6240789], [14.7685732, 11.6311034], [14.7431268, 11.6568134], [14.7353808, 11.6678077], [14.7294873, 11.6839889], [14.7261176, 11.6892569], [14.7192387, 11.6909756], [14.7035279, 11.6830779], [14.6991529, 11.6842487], [14.6954168, 11.6897425], [14.6970522, 11.7024471], [14.6999229, 11.7083516], [14.6980654, 11.7116408], [14.6794018, 11.7133676], [14.6647692, 11.7239564], [14.6510259, 11.7377797], [14.650867, 11.743475], [14.6541627, 11.7566889], [14.6511462, 11.7705707], [14.6467971, 11.7730958], [14.6297111, 11.7715375], [14.6272867, 11.7740255], [14.6263918, 11.7840706], [14.6231639, 11.7876583], [14.6100551, 11.7919427]]]}}, {"type": "Feature", "properties": {"district": "Yagoua", "source": "Yagoua"}, "geometry": {"type": "Polygon", "coordinates": [[[15.1792903, 9.9866355], [15.1991917, 9.9908238], [15.2096694, 9.9908648], [15.2153094, 9.985359], [15.2318542, 9.9874608], [15.2399324, 10.0093013], [15.2343783, 10.0577385], [15.2356287, 10.0687695], [15.2404947, 10.0789608], [15.2456656, 10.0847749], [15.2559482, 10.0933202], [15.267997, 10.0992612], [15.2881795, 10.1364059], [15.3056054, 10.1584335], [15.312098, 10.171932], [15.3141726, 10.1850021], [15.3090202, 10.2000109], [15.3104489, 10.2066659], [15.3109599, 10.2267402], [15.3098976, 10.2377804], [15.3140236, 10.2495243], [15.3348438, 10.2524583], [15.3366395, 10.2513958], [15.335417, 10.2421654], [15.3323889, 10.2334862], [15.3369772, 10.2292837], [15.3547105, 10.2207113], [15.3547807, 10.2111998], [15.3591178, 10.207517], [15.3746032, 10.2033584], [15.3830126, 10.1957395], [15.3889307, 10.1933102], [15.3912007, 10.1770743], [15.4325498, 10.2013194], [15.4168915, 10.2103854], [15.4127716, 10.2147779], [15.4016136, 10.2318404], [15.3978371, 10.2441722], [15.3914856, 10.2480574], [15.3846191, 10.248902], [15.3736328, 10.2627534], [15.3650497, 10.2708612], [15.3504585, 10.2916365], [15.3279709, 10.3036281], [15.3045713, 10.3103574], [15.30308, 10.3188281], [15.3056549, 10.3299744], [15.302565, 10.3341963], [15.2917503, 10.3399381], [15.2828239, 10.366619], [15.2811073, 10.3892453], [15.2744125, 10.4127141], [15.254528, 10.4363787], [15.2427992, 10.4258725], [15.2305183, 10.3930259], [15.2288091, 10.3801122], [15.2196662, 10.3587118], [15.2091018, 10.3387758], [15.1973421, 10.3318095], [15.1773758, 10.3508967], [15.1674906, 10.3654746], [15.1603686, 10.3728055], [15.1429802, 10.3763521], [15.1345841, 10.3669576], [15.1720532, 10.2918131], [15.1106775, 10.1675844], [15.0994022, 10.1619276], [15.0919315, 10.1561992], [15.0871638, 10.1546114], [15.0794276, 10.1482173], [15.0714202, 10.1453477], [15.0618154, 10.1384848], [15.06712, 10.132686], [15.0798206, 10.1242355], [15.0980755, 10.1143401], [15.1056186, 10.1122881], [15.1187687, 10.1037287], [15.127553, 10.0941767], [15.1386307, 10.0896116], [15.1492402, 10.0781827], [15.1549332, 10.0618162], [15.154009, 10.0487577], [15.1584514, 10.0372115], [15.1562189, 10.0334448], [15.1686413, 10.0221672], [15.1725301, 10.013211], [15.172065, 10.0065139], [15.1792903, 9.9866355]]]}}]}